IRS-P5 (CARTOSAT-1)     
1 28649U 05017A   26193.64608080  .00000565  00000+0  62269-4 0  9999
2 28649  97.5306 215.5555 0001526  56.0467 304.0897 14.91113249147616
KAZEOSAT 1              
1 39731U 14024A   26193.83301132 -.00000074  00000+0 -96324-5 0  9997
2 39731  98.3204 265.6407 0001244  82.4578 277.6753 14.42036070642259
KAZEOSAT 2              
1 40010U 14033A   26193.82671876 -.00000024  00000+0  30420-5 0  9992
2 40010  97.5400  32.0832 0007278 228.9037 131.1551 14.85496633652767
JASON-3                 
1 41240U 16002A   26193.86683873 -.00000034  00000+0  11088-3 0  9998
2 41240  66.0416  71.8477 0008207 271.1363  88.8715 12.87628493490550
KAZSTSAT                
1 43783U 18099AB  26193.64836053  .00000712  00000+0  61823-4 0  9991
2 43783  97.4318 224.4284 0007501 351.1054   9.0035 14.99952000415126
INSAT-3DS               
1 58990U 24033A   26193.79312743 -.00000156  00000+0  00000+0 0  9991
2 58990   0.0982 265.1736 0001033 225.5133 167.5910  1.00271140 47321
IONOSFERA-M 1           
1 61735U 24199A   26193.79238831  .00000032  00000+0  33767-4 0  9993
2 61735  98.7139  66.6903 0002189  76.0084 284.1337 14.22758800131343
IONOSFERA-M 2           
1 61736U 24199B   26193.82662236  .00000028  00000+0  32177-4 0  9997
2 61736  98.7138  66.6346 0000408 116.7027 243.4192 14.22762191134477
IONOSFERA-M 3           
1 64876U 25155A   26193.86728480  .00000008  00000+0  23333-4 0  9998
2 64876  98.6038 155.1278 0002226 116.0624 244.0783 14.21490616 50050
IONOSFERA-M 4           
1 64877U 25155B   26193.83169385  .00000014  00000+0  25969-4 0  9993
2 64877  98.6037 155.0102 0001777 101.9412 258.1965 14.21493015 50046
